{
  "type": "FeatureCollection",
  "features": [
    {
      "type": "Feature",
      "properties": {
        "norad_id": 2807,
        "name": "OPS 7218 (TRANSIT 16)",
        "group": "nnss",
        "lat": 7.835297992199026,
        "lon": -6.368818690503359,
        "alt_km": 1066.2019926439398,
        "timestamp": "2025-12-25T16:53:14.931882+00:00",
        "meta_object_name": "OPS 7218 (TRANSIT 16)",
        "meta_object_id": "1967-048A",
        "meta_epoch": "2025-12-25T01:10:04.103904",
        "meta_mean_motion": 13.50724741,
        "meta_eccentricity": 0.00221479,
        "meta_inclination": 89.6734,
        "meta_ra_of_asc_node": 353.6078,
        "meta_arg_of_pericenter": 81.3315,
        "meta_mean_anomaly": 343.8092,
        "meta_ephemeris_type": 0,
        "meta_classification_type": "U",
        "meta_norad_cat_id": 2807,
        "meta_element_set_no": 999,
        "meta_rev_at_epoch": 88442,
        "meta_bstar": 0.00013354144,
        "meta_mean_motion_dot": 9.6e-07,
        "meta_mean_motion_ddot": 0,
        "tle_line1": "1 02807U 67048A   25359.04865861  .00000096  00000+0  13354-3 0  9997",
        "tle_line2": "2 02807  89.6734 353.6078 0022147  81.3315 343.8092 13.50724741884424"
      },
      "geometry": {
        "type": "Point",
        "coordinates": [
          -6.368818690503359,
          7.835297992199026
        ]
      }
    },
    {
      "type": "Feature",
      "properties": {
        "norad_id": 2965,
        "name": "OPS 4947 (TRANSIT 17)",
        "group": "nnss",
        "lat": -20.156434805173426,
        "lon": -156.27761540960844,
        "alt_km": 1029.8073305540893,
        "timestamp": "2025-12-25T16:53:14.931905+00:00",
        "meta_object_name": "OPS 4947 (TRANSIT 17)",
        "meta_object_id": "1967-092A",
        "meta_epoch": "2025-12-24T15:39:13.887648",
        "meta_mean_motion": 13.53456658,
        "meta_eccentricity": 0.00470847,
        "meta_inclination": 89.2486,
        "meta_ra_of_asc_node": 23.5265,
        "meta_arg_of_pericenter": 199.1608,
        "meta_mean_anomaly": 281.0103,
        "meta_ephemeris_type": 0,
        "meta_classification_type": "U",
        "meta_norad_cat_id": 2965,
        "meta_element_set_no": 999,
        "meta_rev_at_epoch": 87258,
        "meta_bstar": 0.00018040166,
        "meta_mean_motion_dot": 1.33e-06,
        "meta_mean_motion_ddot": 0,
        "tle_line1": "1 02965U 67092A   25358.65224407  .00000133  00000+0  18040-3 0  9991",
        "tle_line2": "2 02965  89.2486  23.5265 0047084 199.1608 281.0103 13.53456658872582"
      },
      "geometry": {
        "type": "Point",
        "coordinates": [
          -156.27761540960844,
          -20.156434805173426
        ]
      }
    },
    {
      "type": "Feature",
      "properties": {
        "norad_id": 3133,
        "name": "OPS 7034 (TRANSIT 18)",
        "group": "nnss",
        "lat": -81.8481624454538,
        "lon": 93.47687403612034,
        "alt_km": 1109.5556514120326,
        "timestamp": "2025-12-25T16:53:14.931919+00:00",
        "meta_object_name": "OPS 7034 (TRANSIT 18)",
        "meta_object_id": "1968-012A",
        "meta_epoch": "2025-12-25T07:16:25.166784",
        "meta_mean_motion": 13.51568645,
        "meta_eccentricity": 0.00749856,
        "meta_inclination": 90.0285,
        "meta_ra_of_asc_node": 273.6748,
        "meta_arg_of_pericenter": 133.0584,
        "meta_mean_anomaly": 340.2103,
        "meta_ephemeris_type": 0,
        "meta_classification_type": "U",
        "meta_norad_cat_id": 3133,
        "meta_element_set_no": 999,
        "meta_rev_at_epoch": 57088,
        "meta_bstar": 0.00021382426,
        "meta_mean_motion_dot": 1.52e-06,
        "meta_mean_motion_ddot": 0,
        "tle_line1": "1 03133U 68012A   25359.30306906  .00000152  00000+0  21382-3 0  9994",
        "tle_line2": "2 03133  90.0285 273.6748 0074985 133.0584 340.2103 13.51568645570885"
      },
      "geometry": {
        "type": "Point",
        "coordinates": [
          93.47687403612034,
          -81.8481624454538
        ]
      }
    },
    {
      "type": "Feature",
      "properties": {
        "norad_id": 4507,
        "name": "NNSS 19 (TRANSIT 19)",
        "group": "nnss",
        "lat": -39.89924800924763,
        "lon": 54.53860079155718,
        "alt_km": 970.2240507330371,
        "timestamp": "2025-12-25T16:53:14.931930+00:00",
        "meta_object_name": "NNSS 19 (TRANSIT 19)",
        "meta_object_id": "1970-067A",
        "meta_epoch": "2025-12-25T05:07:31.565856",
        "meta_mean_motion": 13.51317581,
        "meta_eccentricity": 0.01702064,
        "meta_inclination": 90.0047,
        "meta_ra_of_asc_node": 234.5423,
        "meta_arg_of_pericenter": 256.8648,
        "meta_mean_anomaly": 101.3462,
        "meta_ephemeris_type": 0,
        "meta_classification_type": "U",
        "meta_norad_cat_id": 4507,
        "meta_element_set_no": 999,
        "meta_rev_at_epoch": 72390,
        "meta_bstar": 0.00013220227,
        "meta_mean_motion_dot": 1.02e-06,
        "meta_mean_motion_ddot": 0,
        "tle_line1": "1 04507U 70067A   25359.21355979  .00000102  00000+0  13220-3 0  9994",
        "tle_line2": "2 04507  90.0047 234.5423 0170206 256.8648 101.3462 13.51317581723909"
      },
      "geometry": {
        "type": "Point",
        "coordinates": [
          54.53860079155718,
          -39.89924800924763
        ]
      }
    },
    {
      "type": "Feature",
      "properties": {
        "norad_id": 6909,
        "name": "NNSS 20 (TRANSIT 20)",
        "group": "nnss",
        "lat": 26.916927760102382,
        "lon": 74.78679333388038,
        "alt_km": 1037.04733722714,
        "timestamp": "2025-12-25T16:53:14.931941+00:00",
        "meta_object_name": "NNSS 20 (TRANSIT 20)",
        "meta_object_id": "1973-081A",
        "meta_epoch": "2025-12-25T05:39:04.894848",
        "meta_mean_motion": 13.71440852,
        "meta_eccentricity": 0.01561267,
        "meta_inclination": 89.856,
        "meta_ra_of_asc_node": 254.867,
        "meta_arg_of_pericenter": 41.2783,
        "meta_mean_anomaly": 320.0059,
        "meta_ephemeris_type": 0,
        "meta_classification_type": "U",
        "meta_norad_cat_id": 6909,
        "meta_element_set_no": 999,
        "meta_rev_at_epoch": 80532,
        "meta_bstar": 0.00028066336,
        "meta_mean_motion_dot": 2.86e-06,
        "meta_mean_motion_ddot": 0,
        "tle_line1": "1 06909U 73081A   25359.23547332  .00000286  00000+0  28066-3 0  9996",
        "tle_line2": "2 06909  89.8560 254.8670 0156126  41.2783 320.0059 13.71440852805322"
      },
      "geometry": {
        "type": "Point",
        "coordinates": [
          74.78679333388038,
          26.916927760102382
        ]
      }
    },
    {
      "type": "Feature",
      "properties": {
        "norad_id": 10457,
        "name": "TRANSAT",
        "group": "nnss",
        "lat": 64.73413386577127,
        "lon": -102.60957891680503,
        "alt_km": 1054.2107710753553,
        "timestamp": "2025-12-25T16:53:14.931952+00:00",
        "meta_object_name": "TRANSAT",
        "meta_object_id": "1977-106A",
        "meta_epoch": "2025-12-25T03:56:24.941184",
        "meta_mean_motion": 13.48945499,
        "meta_eccentricity": 0.00265218,
        "meta_inclination": 89.6475,
        "meta_ra_of_asc_node": 78.1569,
        "meta_arg_of_pericenter": 154.2871,
        "meta_mean_anomaly": 222.9086,
        "meta_ephemeris_type": 0,
        "meta_classification_type": "U",
        "meta_norad_cat_id": 10457,
        "meta_element_set_no": 999,
        "meta_rev_at_epoch": 36911,
        "meta_bstar": 0.00012822954,
        "meta_mean_motion_dot": 9.1e-07,
        "meta_mean_motion_ddot": 0,
        "tle_line1": "1 10457U 77106A   25359.16417756  .00000091  00000+0  12823-3 0  9997",
        "tle_line2": "2 10457  89.6475  78.1569 0026521 154.2871 222.9086 13.48945499369113"
      },
      "geometry": {
        "type": "Point",
        "coordinates": [
          -102.60957891680503,
          64.73413386577127
        ]
      }
    },
    {
      "type": "Feature",
      "properties": {
        "norad_id": 12458,
        "name": "NOVA 1",
        "group": "nnss",
        "lat": -80.75202775458,
        "lon": -87.89166498572193,
        "alt_km": 1191.4304137535537,
        "timestamp": "2025-12-25T16:53:14.931963+00:00",
        "meta_object_name": "NOVA 1",
        "meta_object_id": "1981-044A",
        "meta_epoch": "2025-12-25T00:07:00.564960",
        "meta_mean_motion": 13.23279741,
        "meta_eccentricity": 0.00157413,
        "meta_inclination": 89.8525,
        "meta_ra_of_asc_node": 91.2118,
        "meta_arg_of_pericenter": 73.8704,
        "meta_mean_anomaly": 99.9773,
        "meta_ephemeris_type": 0,
        "meta_classification_type": "U",
        "meta_norad_cat_id": 12458,
        "meta_element_set_no": 999,
        "meta_rev_at_epoch": 15348,
        "meta_bstar": 0.00017384443,
        "meta_mean_motion_dot": 8.3e-07,
        "meta_mean_motion_ddot": 0,
        "tle_line1": "1 12458U 81044A   25359.00486765  .00000083  00000+0  17384-3 0  9993",
        "tle_line2": "2 12458  89.8525  91.2118 0015741  73.8704  99.9773 13.23279741153482"
      },
      "geometry": {
        "type": "Point",
        "coordinates": [
          -87.89166498572193,
          -80.75202775458
        ]
      }
    }
  ]
}